[{"OBJECT_NAME":"STARLINK-34945","OBJECT_ID":"2025-175M","EPOCH":"2026-03-02T14:27:03.619872","MEAN_MOTION":15.05673747,"ECCENTRICITY":0.0001806,"INCLINATION":97.602,"RA_OF_ASC_NODE":295.6667,"ARG_OF_PERICENTER":93.8807,"MEAN_ANOMALY":266.2626,"EPHEMERIS_TYPE":0,"CLASSIFICATION_TYPE":"U","NORAD_CAT_ID":65185,"ELEMENT_SET_NO":999,"REV_AT_EPOCH":3157,"BSTAR":0.00041244,"MEAN_MOTION_DOT":5.899e-5,"MEAN_MOTION_DDOT":0},{"OBJECT_NAME":"STARLINK-34965","OBJECT_ID":"2025-175N","EPOCH":"2026-03-02T14:19:04.765152","MEAN_MOTION":15.05660979,"ECCENTRICITY":0.0002119,"INCLINATION":97.6032,"RA_OF_ASC_NODE":295.6755,"ARG_OF_PERICENTER":73.4874,"MEAN_ANOMALY":286.6586,"EPHEMERIS_TYPE":0,"CLASSIFICATION_TYPE":"U","NORAD_CAT_ID":65186,"ELEMENT_SET_NO":999,"REV_AT_EPOCH":3157,"BSTAR":0.00036269,"MEAN_MOTION_DOT":5.178e-5,"MEAN_MOTION_DDOT":0},{"OBJECT_NAME":"STARLINK-34915","OBJECT_ID":"2025-175P","EPOCH":"2026-03-02T15:58:46.104960","MEAN_MOTION":15.05653386,"ECCENTRICITY":0.000181,"INCLINATION":97.6023,"RA_OF_ASC_NODE":295.7367,"ARG_OF_PERICENTER":81.863,"MEAN_ANOMALY":278.2802,"EPHEMERIS_TYPE":0,"CLASSIFICATION_TYPE":"U","NORAD_CAT_ID":65187,"ELEMENT_SET_NO":999,"REV_AT_EPOCH":3158,"BSTAR":0.0002064,"MEAN_MOTION_DOT":2.919e-5,"MEAN_MOTION_DDOT":0},{"OBJECT_NAME":"STARLINK-34972","OBJECT_ID":"2025-175Q","EPOCH":"2026-03-02T15:50:46.948704","MEAN_MOTION":15.05672986,"ECCENTRICITY":0.0001922,"INCLINATION":97.6027,"RA_OF_ASC_NODE":295.7437,"ARG_OF_PERICENTER":57.0413,"MEAN_ANOMALY":303.0998,"EPHEMERIS_TYPE":0,"CLASSIFICATION_TYPE":"U","NORAD_CAT_ID":65188,"ELEMENT_SET_NO":999,"REV_AT_EPOCH":3155,"BSTAR":0.00073141,"MEAN_MOTION_DOT":0.00010515,"MEAN_MOTION_DDOT":0},{"OBJECT_NAME":"STARLINK-34866","OBJECT_ID":"2025-175R","EPOCH":"2026-03-02T15:46:48.545184","MEAN_MOTION":15.05659148,"ECCENTRICITY":0.0002413,"INCLINATION":97.6031,"RA_OF_ASC_NODE":295.7485,"ARG_OF_PERICENTER":78.5038,"MEAN_ANOMALY":281.646,"EPHEMERIS_TYPE":0,"CLASSIFICATION_TYPE":"U","NORAD_CAT_ID":65189,"ELEMENT_SET_NO":999,"REV_AT_EPOCH":3158,"BSTAR":0.00033502,"MEAN_MOTION_DOT":4.778e-5,"MEAN_MOTION_DDOT":0},{"OBJECT_NAME":"STARLINK-34917","OBJECT_ID":"2025-175S","EPOCH":"2026-03-02T20:00:01.999008","MEAN_MOTION":15.0566723,"ECCENTRICITY":0.0002429,"INCLINATION":97.6037,"RA_OF_ASC_NODE":295.9279,"ARG_OF_PERICENTER":61.2201,"MEAN_ANOMALY":186.4707,"EPHEMERIS_TYPE":0,"CLASSIFICATION_TYPE":"U","NORAD_CAT_ID":65190,"ELEMENT_SET_NO":999,"REV_AT_EPOCH":577,"BSTAR":-0.0030426,"MEAN_MOTION_DOT":-0.00043717,"MEAN_MOTION_DDOT":0},{"OBJECT_NAME":"STARLINK-34948","OBJECT_ID":"2025-175T","EPOCH":"2026-03-02T15:38:48.827328","MEAN_MOTION":15.05682846,"ECCENTRICITY":0.0002363,"INCLINATION":97.604,"RA_OF_ASC_NODE":295.7525,"ARG_OF_PERICENTER":71.8165,"MEAN_ANOMALY":288.3319,"EPHEMERIS_TYPE":0,"CLASSIFICATION_TYPE":"U","NORAD_CAT_ID":65191,"ELEMENT_SET_NO":999,"REV_AT_EPOCH":3158,"BSTAR":0.00081816,"MEAN_MOTION_DOT":0.00011775,"MEAN_MOTION_DDOT":0},{"OBJECT_NAME":"STARLINK-34955","OBJECT_ID":"2025-175U","EPOCH":"2026-03-02T15:34:50.795328","MEAN_MOTION":15.0566077,"ECCENTRICITY":0.0002461,"INCLINATION":97.6042,"RA_OF_ASC_NODE":295.7595,"ARG_OF_PERICENTER":85.0195,"MEAN_ANOMALY":275.1312,"EPHEMERIS_TYPE":0,"CLASSIFICATION_TYPE":"U","NORAD_CAT_ID":65192,"ELEMENT_SET_NO":999,"REV_AT_EPOCH":3155,"BSTAR":0.00039088,"MEAN_MOTION_DOT":5.586e-5,"MEAN_MOTION_DDOT":0},{"OBJECT_NAME":"STARLINK-34950","OBJECT_ID":"2025-175V","EPOCH":"2026-03-02T15:30:53.559072","MEAN_MOTION":15.05657488,"ECCENTRICITY":0.0002629,"INCLINATION":97.6042,"RA_OF_ASC_NODE":295.7637,"ARG_OF_PERICENTER":79.2442,"MEAN_ANOMALY":280.9081,"EPHEMERIS_TYPE":0,"CLASSIFICATION_TYPE":"U","NORAD_CAT_ID":65193,"ELEMENT_SET_NO":999,"REV_AT_EPOCH":3155,"BSTAR":0.00052239,"MEAN_MOTION_DOT":7.487e-5,"MEAN_MOTION_DDOT":0},{"OBJECT_NAME":"STARLINK-34926","OBJECT_ID":"2025-175W","EPOCH":"2026-03-02T15:14:55.061664","MEAN_MOTION":15.05651619,"ECCENTRICITY":0.0002236,"INCLINATION":97.6037,"RA_OF_ASC_NODE":295.7783,"ARG_OF_PERICENTER":89.4785,"MEAN_ANOMALY":270.6698,"EPHEMERIS_TYPE":0,"CLASSIFICATION_TYPE":"U","NORAD_CAT_ID":65194,"ELEMENT_SET_NO":999,"REV_AT_EPOCH":3155,"BSTAR":0.00016968,"MEAN_MOTION_DOT":2.389e-5,"MEAN_MOTION_DDOT":0},{"OBJECT_NAME":"STARLINK-34928","OBJECT_ID":"2025-175X","EPOCH":"2026-03-02T15:18:54.259200","MEAN_MOTION":15.05656111,"ECCENTRICITY":0.0002483,"INCLINATION":97.6037,"RA_OF_ASC_NODE":295.7747,"ARG_OF_PERICENTER":65.0727,"MEAN_ANOMALY":295.0758,"EPHEMERIS_TYPE":0,"CLASSIFICATION_TYPE":"U","NORAD_CAT_ID":65195,"ELEMENT_SET_NO":999,"REV_AT_EPOCH":3158,"BSTAR":0.00025909,"MEAN_MOTION_DOT":3.68e-5,"MEAN_MOTION_DDOT":0},{"OBJECT_NAME":"STARLINK-34927","OBJECT_ID":"2025-175Y","EPOCH":"2026-03-02T15:26:54.180960","MEAN_MOTION":15.05643588,"ECCENTRICITY":0.0002199,"INCLINATION":97.6046,"RA_OF_ASC_NODE":295.7678,"ARG_OF_PERICENTER":87.4452,"MEAN_ANOMALY":272.7026,"EPHEMERIS_TYPE":0,"CLASSIFICATION_TYPE":"U","NORAD_CAT_ID":65196,"ELEMENT_SET_NO":999,"REV_AT_EPOCH":3158,"BSTAR":0.00065178,"MEAN_MOTION_DOT":9.355e-5,"MEAN_MOTION_DDOT":0},{"OBJECT_NAME":"STARLINK-34952","OBJECT_ID":"2025-175Z","EPOCH":"2026-03-02T15:22:53.474016","MEAN_MOTION":15.05658837,"ECCENTRICITY":0.0003048,"INCLINATION":97.6038,"RA_OF_ASC_NODE":295.7713,"ARG_OF_PERICENTER":63.1521,"MEAN_ANOMALY":297.0017,"EPHEMERIS_TYPE":0,"CLASSIFICATION_TYPE":"U","NORAD_CAT_ID":65197,"ELEMENT_SET_NO":999,"REV_AT_EPOCH":3158,"BSTAR":0.00028141,"MEAN_MOTION_DOT":4.003e-5,"MEAN_MOTION_DDOT":0},{"OBJECT_NAME":"STARLINK-34981","OBJECT_ID":"2025-176A","EPOCH":"2026-03-02T15:49:58.510272","MEAN_MOTION":15.30208969,"ECCENTRICITY":9.94e-5,"INCLINATION":53.161,"RA_OF_ASC_NODE":188.2469,"ARG_OF_PERICENTER":50.4572,"MEAN_ANOMALY":309.6517,"EPHEMERIS_TYPE":0,"CLASSIFICATION_TYPE":"U","NORAD_CAT_ID":65198,"ELEMENT_SET_NO":999,"REV_AT_EPOCH":3200,"BSTAR":0.00063054,"MEAN_MOTION_DOT":0.00018367,"MEAN_MOTION_DDOT":0},{"OBJECT_NAME":"STARLINK-34821","OBJECT_ID":"2025-176B","EPOCH":"2026-03-02T17:07:54.823872","MEAN_MOTION":15.3019618,"ECCENTRICITY":9.78e-5,"INCLINATION":53.1591,"RA_OF_ASC_NODE":185.0435,"ARG_OF_PERICENTER":97.7,"MEAN_ANOMALY":262.4112,"EPHEMERIS_TYPE":0,"CLASSIFICATION_TYPE":"U","NORAD_CAT_ID":65199,"ELEMENT_SET_NO":999,"REV_AT_EPOCH":3199,"BSTAR":0.00012651,"MEAN_MOTION_DOT":3.389e-5,"MEAN_MOTION_DDOT":0},{"OBJECT_NAME":"STARLINK-34865","OBJECT_ID":"2025-176C","EPOCH":"2026-03-02T15:02:06.393696","MEAN_MOTION":15.30182747,"ECCENTRICITY":8.78e-5,"INCLINATION":53.1587,"RA_OF_ASC_NODE":185.9223,"ARG_OF_PERICENTER":95.7007,"MEAN_ANOMALY":264.4094,"EPHEMERIS_TYPE":0,"CLASSIFICATION_TYPE":"U","NORAD_CAT_ID":65200,"ELEMENT_SET_NO":999,"REV_AT_EPOCH":3203,"BSTAR":0.00056818,"MEAN_MOTION_DOT":0.00016497,"MEAN_MOTION_DDOT":0},{"OBJECT_NAME":"STARLINK-34843","OBJECT_ID":"2025-176D","EPOCH":"2026-03-02T14:30:11.811168","MEAN_MOTION":15.30205348,"ECCENTRICITY":0.0001275,"INCLINATION":53.1603,"RA_OF_ASC_NODE":185.7797,"ARG_OF_PERICENTER":85.0622,"MEAN_ANOMALY":275.0524,"EPHEMERIS_TYPE":0,"CLASSIFICATION_TYPE":"U","NORAD_CAT_ID":65201,"ELEMENT_SET_NO":999,"REV_AT_EPOCH":3203,"BSTAR":0.00050839,"MEAN_MOTION_DOT":0.0001473,"MEAN_MOTION_DDOT":0}]
