STARLINK-34945          
1 65185U 25175M   26061.60212523  .00005899  00000+0  41244-3 0  9999
2 65185  97.6020 295.6667 0001806  93.8807 266.2626 15.05673747 31573
STARLINK-34965          
1 65186U 25175N   26061.59658293  .00005178  00000+0  36269-3 0  9997
2 65186  97.6032 295.6755 0002119  73.4874 286.6586 15.05660979 31575
STARLINK-34915          
1 65187U 25175P   26061.66581140  .00002919  00000+0  20640-3 0  9998
2 65187  97.6023 295.7367 0001810  81.8630 278.2802 15.05653386 31589
STARLINK-34972          
1 65188U 25175Q   26061.66026561  .00010515  00000+0  73141-3 0  9995
2 65188  97.6027 295.7437 0001922  57.0413 303.0998 15.05672986 31557
STARLINK-34866          
1 65189U 25175R   26061.65750631  .00004778  00000+0  33502-3 0  9998
2 65189  97.6031 295.7485 0002413  78.5038 281.6460 15.05659148 31586
STARLINK-34917          
1 65190U 25175S   26061.83335647 -.00043717  00000+0 -30426-2 0  9995
2 65190  97.6037 295.9279 0002429  61.2201 186.4707 15.05667230  5774
STARLINK-34948          
1 65191U 25175T   26061.65195402  .00011775  00000+0  81816-3 0  9996
2 65191  97.6040 295.7525 0002363  71.8165 288.3319 15.05682846 31583
STARLINK-34955          
1 65192U 25175U   26061.64919902  .00005586  00000+0  39088-3 0  9992
2 65192  97.6042 295.7595 0002461  85.0195 275.1312 15.05660770 31558
STARLINK-34950          
1 65193U 25175V   26061.64645323  .00007487  00000+0  52239-3 0  9991
2 65193  97.6042 295.7637 0002629  79.2442 280.9081 15.05657488 31551
STARLINK-34926          
1 65194U 25175W   26061.63535951  .00002389  00000+0  16968-3 0  9991
2 65194  97.6037 295.7783 0002236  89.4785 270.6698 15.05651619 31555
STARLINK-34928          
1 65195U 25175X   26061.63812800  .00003680  00000+0  25909-3 0  9993
2 65195  97.6037 295.7747 0002483  65.0727 295.0758 15.05656111 31589
STARLINK-34927          
1 65196U 25175Y   26061.64368265  .00009355  00000+0  65178-3 0  9993
2 65196  97.6046 295.7678 0002199  87.4452 272.7026 15.05643588 31584
STARLINK-34952          
1 65197U 25175Z   26061.64089669  .00004003  00000+0  28141-3 0  9996
2 65197  97.6038 295.7713 0003048  63.1521 297.0017 15.05658837 31581
STARLINK-34981          
1 65198U 25176A   26061.65970498  .00018367  00000+0  63054-3 0  9998
2 65198  53.1610 188.2469 0000994  50.4572 309.6517 15.30208969 32009
STARLINK-34821          
1 65199U 25176B   26061.71382898  .00003389  00000+0  12651-3 0  9992
2 65199  53.1591 185.0435 0000978  97.7000 262.4112 15.30196180 31993
STARLINK-34865          
1 65200U 25176C   26061.62646289  .00016497  00000+0  56818-3 0  9999
2 65200  53.1587 185.9223 0000878  95.7007 264.4094 15.30182747 32030
STARLINK-34843          
1 65201U 25176D   26061.60430337  .00014730  00000+0  50839-3 0  9998
2 65201  53.1603 185.7797 0001275  85.0622 275.0524 15.30205348 32030
